NORAD_CAT_ID,OBJECT_NAME,OBJECT_TYPE,EPOCH,MEAN_MOTION,ECCENTRICITY,INCLINATION,RA_OF_ASC_NODE,ARG_OF_PERICENTER,MEAN_ANOMALY,BSTAR,MEAN_MOTION_DOT,MEAN_MOTION_DDOT,TLE_LINE0,TLE_LINE1,TLE_LINE2,SEMIMAJOR_AXIS,PERIOD,APOGEE,PERIGEE,DECAYED
56497.0,STARLINK-5527,PAYLOAD,2023-05-29 14:00:01,15.69909504,0.0003727,69.9998,192.2594,271.7196,148.3446,0.00031838,0.00038224,0.0,0 STARLINK-5527,1 56497U 23064BB  23149.58334491  .00038224  00000-0  31838-3 0  9997,2 56497  69.9998 192.2594 0003727 271.7196 148.3446 15.69909504  3334,6737.293,91.725,361.669,356.647,0.0
56497.0,STARLINK-5527,PAYLOAD,2023-05-29 21:23:29,15.69923664,0.0003685,69.9994,191.3932,267.693,92.3844,8.7635e-05,0.00010338,0.0,0 STARLINK-5527,1 56497U 23064BB  23149.89131265  .00010338  00000-0  87635-4 0  9998,2 56497  69.9994 191.3932 0003685 267.6930  92.3844 15.69923664  3039,6737.252,91.724,361.6,356.635,0.0
56497.0,STARLINK-5527,PAYLOAD,2023-05-30 06:00:00,15.69975936,0.0003646,69.9997,190.3854,267.218,319.5063,-0.0008047,-0.00096086,0.0,0 STARLINK-5527,1 56497U 23064BB  23150.25001157 -.00096086  00000-0 -80470-3 0  9991,2 56497  69.9997 190.3854 0003646 267.2180 319.5063 15.69975936  3445,6737.103,91.721,361.424,356.512,0.0
56497.0,STARLINK-5527,PAYLOAD,2023-05-30 12:41:00,15.69956188,0.0003759,69.9994,189.6021,269.3777,90.6988,0.00028476,0.00034215,0.0,0 STARLINK-5527,1 56497U 23064BB  23150.52847528  .00034215  00000-0  28476-3 0  9993,2 56497  69.9994 189.6021 0003759 269.3777  90.6988 15.69956188  3136,6737.159,91.722,361.557,356.492,0.0
56497.0,STARLINK-5527,PAYLOAD,2023-05-30 14:00:01,15.69909676,0.0003631,69.9993,189.4481,273.0217,37.0571,0.0002718,0.00032578,0.0,0 STARLINK-5527,1 56497U 23064BB  23150.58334491  .00032578  00000-0  27180-3 0  9990,2 56497  69.9993 189.4481 0003631 273.0217  37.0571 15.69909676  3495,6737.292,91.725,361.604,356.711,0.0
56497.0,STARLINK-5527,PAYLOAD,2023-05-30 20:19:46,15.69943136,0.0003606,69.9994,188.7068,268.6266,91.4517,0.00020083,0.00024024,0.0,0 STARLINK-5527,1 56497U 23064BB  23150.84706114  .00024024  00000-0  20083-3 0  9996,2 56497  69.9994 188.7068 0003606 268.6266  91.4517 15.69943136  3184,6737.197,91.723,361.491,356.632,0.0
56497.0,STARLINK-5527,PAYLOAD,2023-05-31 10:05:32,15.69940019,0.0003588,69.9994,187.0946,269.3279,90.7506,0.0001022,0.00012102,0.0,0 STARLINK-5527,1 56497U 23064BB  23151.42051020  .00012102  00000-0  10220-3 0  9996,2 56497  69.9994 187.0946 0003588 269.3279  90.7506 15.69940019  3628,6737.206,91.723,361.488,356.653,0.0
56497.0,STARLINK-5527,PAYLOAD,2023-05-31 13:09:02,15.69930065,0.0003565,69.9992,186.7362,268.0358,92.0429,5.0959e-05,5.921e-05,0.0,0 STARLINK-5527,1 56497U 23064BB  23151.54794535  .00005921  00000-0  50959-4 0  9999,2 56497  69.9992 186.7362 0003565 268.0358  92.0429 15.69930065  3295,6737.234,91.724,361.501,356.697,0.0
56497.0,STARLINK-5527,PAYLOAD,2023-05-31 14:40:47,15.69933567,0.0003576,69.9992,186.5571,268.6789,91.3997,6.7829e-05,7.954e-05,0.0,0 STARLINK-5527,1 56497U 23064BB  23151.61166121  .00007954  00000-0  67829-4 0  9993,2 56497  69.9992 186.5571 0003576 268.6789  91.3997 15.69933567  3653,6737.224,91.724,361.498,356.68,0.0
56497.0,STARLINK-5527,PAYLOAD,2023-05-31 20:47:48,15.69927264,0.0003542,69.9992,185.8404,270.3227,89.7563,3.8257e-05,4.39e-05,0.0,0 STARLINK-5527,1 56497U 23064BB  23151.86652891  .00004390  00000-0  38257-4 0  9998,2 56497  69.9992 185.8404 0003542 270.3227  89.7563 15.69927264  3343,6737.242,91.724,361.493,356.721,0.0
56497.0,STARLINK-5527,PAYLOAD,2023-06-01 02:54:48,15.69921248,0.0003596,69.9987,185.1239,269.9142,90.1642,1.5161e-06,-3.1e-07,0.0,0 STARLINK-5527,1 56497U 23064BB  23152.12139832 -.00000031  00000-0  15161-5 0  9992,2 56497  69.9987 185.1239 0003596 269.9142  90.1642 15.69921248  3738,6737.259,91.724,361.547,356.702,0.0
56497.0,STARLINK-5527,PAYLOAD,2023-06-01 10:33:34,15.69931641,0.0003565,69.9986,184.2283,270.2396,89.8391,2.9293e-05,3.312e-05,0.0,0 STARLINK-5527,1 56497U 23064BB  23152.43997790  .00003312  00000-0  29293-4 0  9995,2 56497  69.9986 184.2283 0003565 270.2396  89.8391 15.69931641  3439,6737.23,91.724,361.496,356.693,0.0
56497.0,STARLINK-5527,PAYLOAD,2023-06-01 19:44:04,15.69928358,0.0003425,69.9987,183.1537,270.2811,89.7992,2.4775e-05,2.768e-05,0.0,0 STARLINK-5527,1 56497U 23064BB  23152.82227935  .00002768  00000-0  24775-4 0  9999,2 56497  69.9987 183.1537 0003425 270.2811  89.7992 15.69928358  3490,6737.239,91.724,361.411,356.796,0.0
56497.0,STARLINK-5527,PAYLOAD,2023-06-02 03:22:50,15.69922247,0.0003208,69.9982,182.2575,268.4108,91.6721,5.782e-06,4.83e-06,0.0,0 STARLINK-5527,1 56497U 23064BB  23153.14086600  .00000483  00000-0  57820-5 0  9997,2 56497  69.9982 182.2575 0003208 268.4108  91.6721 15.69922247  3891,6737.256,91.724,361.283,356.96,0.0
56497.0,STARLINK-5527,PAYLOAD,2023-06-02 11:01:36,15.69924373,0.0003238,69.9981,181.3619,268.4552,91.6272,1.2285e-05,1.265e-05,0.0,0 STARLINK-5527,1 56497U 23064BB  23153.45944979  .00001265  00000-0  12285-4 0  9997,2 56497  69.9981 181.3619 0003238 268.4552  91.6272 15.69924373  3595,6737.25,91.724,361.297,356.934,0.0
56497.0,STARLINK-5527,PAYLOAD,2023-06-03 09:57:53,15.69928385,0.0003334,69.9977,178.6736,269.9326,90.1488,2.6755e-05,3.006e-05,0.0,0 STARLINK-5527,1 56497U 23064BB  23154.41519923  .00003006  00000-0  26755-4 0  9993,2 56497  69.9977 178.6736 0003334 269.9326  90.1488 15.69928385  4097,6737.239,91.724,361.35,356.858,0.0
56497.0,STARLINK-5527,PAYLOAD,2023-06-03 11:29:38,15.69926615,0.0003227,69.9987,178.4955,272.8361,87.2466,2.1385e-05,2.36e-05,0.0,0 STARLINK-5527,1 56497U 23064BB  23154.47891747  .00002360  00000-0  21385-4 0  9992,2 56497  69.9987 178.4955 0003227 272.8361  87.2466 15.69926615  3751,6737.244,91.724,361.283,356.935,0.0
56497.0,STARLINK-5527,PAYLOAD,2023-06-03 19:08:23,15.69928828,0.0003119,69.999,177.6011,269.5367,90.5471,-8.5584e-06,-1.242e-05,0.0,0 STARLINK-5527,1 56497U 23064BB  23154.79749923 -.00001242  00000-0 -85584-5 0  9997,2 56497  69.9990 177.6011 0003119 269.5367  90.5471 15.69928828  3805,6737.238,91.724,361.204,357.001,0.0
56497.0,STARLINK-5527,PAYLOAD,2023-06-04 02:47:09,15.69921319,0.0003632,69.9974,176.7032,265.108,94.9701,1.2554e-05,1.297e-05,0.0,0 STARLINK-5527,1 56497U 23064BB  23155.11608561  .00001297  00000-0  12554-4 0  9990,2 56497  69.9974 176.7032 0003632 265.1080  94.9701 15.69921319  4201,6737.259,91.724,361.571,356.677,0.0
56497.0,STARLINK-5527,PAYLOAD,2023-06-04 13:29:25,15.69929514,0.0003421,69.9988,175.4502,265.9032,94.1772,2.0189e-05,2.216e-05,0.0,0 STARLINK-5527,1 56497U 23064BB  23155.56209890  .00002216  00000-0  20189-4 0  9996,2 56497  69.9988 175.4502 0003421 265.9032  94.1772 15.69929514  3928,6737.236,91.724,361.405,356.796,0.0
56497.0,STARLINK-5527,PAYLOAD,2023-06-04 15:01:10,15.69929538,0.0003403,69.9988,175.2711,266.2771,93.8036,1.9536e-05,2.137e-05,0.0,0 STARLINK-5527,1 56497U 23064BB  23155.62581549  .00002137  00000-0  19536-4 0  9993,2 56497  69.9988 175.2711 0003403 266.2771  93.8036 15.69929538  3938,6737.236,91.724,361.393,356.808,0.0
56497.0,STARLINK-5527,PAYLOAD,2023-06-05 04:46:56,15.699234,0.0003713,69.9986,173.6595,262.21,97.8674,1.976e-06,2.5e-07,0.0,0 STARLINK-5527,1 56497U 23064BB  23156.19926699  .00000025  00000-0  19760-5 0  9999,2 56497  69.9986 173.6595 0003713 262.2100  97.8674 15.69923400  4377,6737.253,91.724,361.62,356.617,0.0
56497.0,STARLINK-5527,PAYLOAD,2023-06-05 10:53:57,15.69923411,0.0003687,69.9982,172.9425,264.0371,96.0405,1.2632e-06,-6.1e-07,0.0,0 STARLINK-5527,1 56497U 23064BB  23156.45413427 -.00000061  00000-0  12632-5 0  9990,2 56497  69.9982 172.9425 0003687 264.0371  96.0405 15.69923411  4068,6737.253,91.724,361.602,356.634,0.0
56497.0,STARLINK-5527,PAYLOAD,2023-06-05 18:32:43,15.69918518,0.0003491,69.9971,172.0463,264.9917,95.0881,7.7217e-06,7.15e-06,0.0,0 STARLINK-5527,1 56497U 23064BB  23156.77272378  .00000715  00000-0  77217-5 0  9998,2 56497  69.9971 172.0463 0003491 264.9917  95.0881 15.69918518  4112,6737.267,91.725,361.484,356.78,0.0
56497.0,STARLINK-5527,PAYLOAD,2023-06-06 03:43:13,15.69927629,0.0003643,69.9978,170.9724,266.4802,93.5977,1.673e-05,1.799e-05,0.0,0 STARLINK-5527,1 56497U 23064BB  23157.15501763  .00001799  00000-0  16730-4 0  9999,2 56497  69.9978 170.9724 0003643 266.4802  93.5977 15.69927629  4522,6737.241,91.724,361.56,356.652,0.0
56497.0,STARLINK-5527,PAYLOAD,2023-06-06 11:21:59,15.69927225,0.000351,69.9999,170.0785,267.038,93.0414,9.3915e-06,9.17e-06,0.0,0 STARLINK-5527,1 56497U 23064BB  23157.47360156  .00000917  00000-0  93915-5 0  9995,2 56497  69.9999 170.0785 0003510 267.0380  93.0414 15.69927225  4224,6737.242,91.724,361.472,356.742,0.0
56497.0,STARLINK-5527,PAYLOAD,2023-06-06 12:53:44,15.69926604,0.0003587,69.9994,169.8977,265.6043,94.4743,7.2541e-06,6.6e-06,0.0,0 STARLINK-5527,1 56497U 23064BB  23157.53731817  .00000660  00000-0  72541-5 0  9995,2 56497  69.9994 169.8977 0003587 265.6043  94.4743 15.69926604  4233,6737.244,91.724,361.526,356.692,0.0
56497.0,STARLINK-5527,PAYLOAD,2023-06-07 10:18:16,15.6992295,0.0003504,69.9983,167.3903,264.904,95.1756,1.8892e-05,2.059e-05,0.0,0 STARLINK-5527,1 56497U 23064BB  23158.42935421  .00002059  00000-0  18892-4 0  9993,2 56497  69.9983 167.3903 0003504 264.9040  95.1756 15.69922950  4727,6737.254,91.724,361.48,356.759,0.0
56497.0,STARLINK-5527,PAYLOAD,2023-06-07 13:21:46,15.69922126,0.0003406,69.9975,167.0315,264.4571,95.6236,1.5618e-05,1.665e-05,0.0,0 STARLINK-5527,1 56497U 23064BB  23158.55678890  .00001665  00000-0  15618-4 0  9996,2 56497  69.9975 167.0315 0003406 264.4571  95.6236 15.69922126  4393,6737.257,91.724,361.417,356.827,0.0
56497.0,STARLINK-5527,PAYLOAD,2023-06-07 17:57:01,15.69921612,0.0003739,69.9969,166.4944,265.119,94.9578,1.639e-05,1.758e-05,0.0,0 STARLINK-5527,1 56497U 23064BB  23158.74793876  .00001758  00000-0  16390-4 0  9990,2 56497  69.9969 166.4944 0003739 265.1190  94.9578 15.69921612  4425,6737.258,91.724,361.642,356.604,0.0
